0 SL-6 R/B(2)
1 32705U 77093E   13283.13906899  .00000438  00000-0  00000+0 0  5467
2 32705 077.7941 007.3411 8450298 294.7471 001.4124 00.25809815  5331
0 SL-6 R/B(2)
1 32705U 77093E   13287.00906277  .00000597  00000-0  00000+0 0  5474
2 32705 077.8879 007.0994 8444612 294.7784 000.8352 00.25805023  5349
0 SL-6 R/B(2)
1 32705U 77093E   13290.87679762  .00000434  00000-0  00000+0 0  5480
2 32705 077.9974 006.8480 8434840 294.7893 000.1460 00.25811692  5359
0 SL-6 R/B(2)
1 32705U 77093E   13294.75878373  .00000226  00000-0  00000+0 0  5490
2 32705 078.0694 006.6504 8420143 294.7380 000.9816 00.25809480  5363
